1 08820U 76039A   03221.82354967  .00000003  00000-0  10000-3 0  9598
2 08820 109.8075 199.9520 0044676 289.9915  69.5867  6.38664328380485
